start=new Date('2023-02-22T00:00:00.000Z').valueOf();
sats=[{"EPOCH":"2023-02-21T14:47:48.275808","RA_OF_ASC_NODE":"138.9093","INCLINATION":"53.0526","COUNTRY_CODE":"US","EPHEMERIS_TYPE":"0","MEAN_ELEMENT_THEORY":"SGP4","LAUNCH_DATE":"2021-05-09","ELEMENT_SET_NO":"999","SITE":"AFETR","CENTER_NAME":"EARTH","NORAD_CAT_ID":"48428","OBJECT_TYPE":"PAYLOAD","MEAN_MOTION_DDOT":"0.0000000000000","REV_AT_EPOCH":"9894","RCS_SIZE":"LARGE","PERIOD":"95.590","MEAN_MOTION":"15.06434151","ARG_OF_PERICENTER":"85.3379","TLE_LINE2":"2 48428  53.0526 138.9093 0001421  85.3379 274.7772 15.06434151 98941","GP_ID":"226331267","MEAN_MOTION_DOT":"0.00033322","TLE_LINE1":"1 48428U 21040A   23052.61653097  .00033322  00000-0  22433-2 0  9991","PERIAPSIS":"546.125","REF_FRAME":"TEME","APOAPSIS":"548.093","DECAY_DATE":null,"TIME_SYSTEM":"UTC","ECCENTRICITY":"0.00014210","OBJECT_ID":"2021-040A","OBJECT_NAME":"STARLINK-2461","BSTAR":"0.00224330000000","SEMIMAJOR_AXIS":"6925.244","FILE":"3821329","MEAN_ANOMALY":"274.7772","CLASSIFICATION_TYPE":"U"},{"RCS_SIZE":"LARGE","PERIOD":"95.590","MEAN_MOTION":"15.06438674","ARG_OF_PERICENTER":"94.5931","TLE_LINE2":"2 48429  53.0527 107.8625 0002356  94.5931 265.5327 15.06438674 99391","GP_ID":"226331018","MEAN_MOTION_DOT":"0.00008355","TLE_LINE1":"1 48429U 21040B   23052.85150909  .00008355  00000-0  57853-3 0  9995","PERIAPSIS":"545.463","APOAPSIS":"548.727","REF_FRAME":"TEME","DECAY_DATE":null,"TIME_SYSTEM":"UTC","ECCENTRICITY":"0.00023560","OBJECT_ID":"2021-040B","BSTAR":"0.00057853000000","OBJECT_NAME":"STARLINK-2749","SEMIMAJOR_AXIS":"6925.230","MEAN_ANOMALY":"265.5327","FILE":"3821329","CLASSIFICATION_TYPE":"U","EPOCH":"2023-02-21T20:26:10.385376","RA_OF_ASC_NODE":"107.8625","INCLINATION":"53.0527","COUNTRY_CODE":"US","EPHEMERIS_TYPE":"0","MEAN_ELEMENT_THEORY":"SGP4","LAUNCH_DATE":"2021-05-09","ELEMENT_SET_NO":"999","SITE":"AFETR","CENTER_NAME":"EARTH","NORAD_CAT_ID":"48429","OBJECT_TYPE":"PAYLOAD","MEAN_MOTION_DDOT":"0.0000000000000","REV_AT_EPOCH":"9939"},{"COUNTRY_CODE":"US","MEAN_ELEMENT_THEORY":"SGP4","EPHEMERIS_TYPE":"0","RA_OF_ASC_NODE":"108.9003","EPOCH":"2023-02-21T14:50:25.243008","INCLINATION":"53.0516","OBJECT_TYPE":"PAYLOAD","NORAD_CAT_ID":"48430","REV_AT_EPOCH":"9936","MEAN_MOTION_DDOT":"0.0000000000000","ELEMENT_SET_NO":"999","LAUNCH_DATE":"2021-05-09","CENTER_NAME":"EARTH","SITE":"AFETR","TLE_LINE1":"1 48430U 21040C   23052.61834772  .00029852  00000-0  20129-2 0  9998","MEAN_MOTION_DOT":"0.00029852","GP_ID":"226329766","TIME_SYSTEM":"UTC","DECAY_DATE":null,"PERIAPSIS":"545.982","APOAPSIS":"548.266","REF_FRAME":"TEME","PERIOD":"95.590","RCS_SIZE":"LARGE","TLE_LINE2":"2 48430  53.0516 108.9003 0001649  71.1960 288.9207 15.06429096 99361","ARG_OF_PERICENTER":"71.1960","MEAN_MOTION":"15.06429096","MEAN_ANOMALY":"288.9207","FILE":"3821329","SEMIMAJOR_AXIS":"6925.259","OBJECT_NAME":"STARLINK-2729","BSTAR":"0.00201290000000","CLASSIFICATION_TYPE":"U","OBJECT_ID":"2021-040C","ECCENTRICITY":"0.00016490"},{"COUNTRY_CODE":"US","MEAN_ELEMENT_THEORY":"SGP4","EPHEMERIS_TYPE":"0","RA_OF_ASC_NODE":"102.9500","EPOCH":"2023-02-21T19:56:16.880352","INCLINATION":"53.0501","OBJECT_TYPE":"PAYLOAD","NORAD_CAT_ID":"48431","REV_AT_EPOCH":"9946","MEAN_MOTION_DDOT":"0.0000000000000","ELEMENT_SET_NO":"999","LAUNCH_DATE":"2021-05-09","CENTER_NAME":"EARTH","SITE":"AFETR","TLE_LINE1":"1 48431U 21040D   23052.83075093  .00000290  00000-0  38380-4 0  9991","MEAN_MOTION_DOT":"0.00000290","GP_ID":"226330016","TIME_SYSTEM":"UTC","DECAY_DATE":null,"PERIAPSIS":"545.818","APOAPSIS":"548.575","REF_FRAME":"TEME","PERIOD":"95.592","RCS_SIZE":"LARGE","TLE_LINE2":"2 48431  53.0501 102.9500 0001990  86.1013 274.0203 15.06405531 99467","ARG_OF_PERICENTER":"86.1013","MEAN_MOTION":"15.06405531","MEAN_ANOMALY":"274.0203","FILE":"3821329","SEMIMAJOR_AXIS":"6925.332","BSTAR":"0.00003838000000","OBJECT_NAME":"STARLINK-2700","CLASSIFICATION_TYPE":"U","OBJECT_ID":"2021-040D","ECCENTRICITY":"0.00019900"},{"COUNTRY_CODE":"US","EPHEMERIS_TYPE":"0","MEAN_ELEMENT_THEORY":"SGP4","EPOCH":"2023-02-21T19:29:10.146336","RA_OF_ASC_NODE":"98.4326","INCLINATION":"53.0522","NORAD_CAT_ID":"48432","OBJECT_TYPE":"PAYLOAD","MEAN_MOTION_DDOT":"0.0000000000000","REV_AT_EPOCH":"9952","LAUNCH_DATE":"2021-05-09","ELEMENT_SET_NO":"999","SITE":"AFETR","CENTER_NAME":"EARTH","GP_ID":"226330768","MEAN_MOTION_DOT":"0.00011130","TLE_LINE1":"1 48432U 21040E   23052.81192299  .00011130  00000-0  76466-3 0  9999","PERIAPSIS":"545.703","APOAPSIS":"548.649","REF_FRAME":"TEME","DECAY_DATE":null,"TIME_SYSTEM":"UTC","RCS_SIZE":"LARGE","PERIOD":"95.591","MEAN_MOTION":"15.06412402","ARG_OF_PERICENTER":"74.7665","TLE_LINE2":"2 48432  53.0522  98.4326 0002127  74.7665 285.3559 15.06412402 99526","OBJECT_NAME":"STARLINK-2680","BSTAR":"0.00076466000000","SEMIMAJOR_AXIS":"6925.311","MEAN_ANOMALY":"285.3559","FILE":"3821329","CLASSIFICATION_TYPE":"U","ECCENTRICITY":"0.00021270","OBJECT_ID":"2021-040E"},{"ELEMENT_SET_NO":"999","LAUNCH_DATE":"2021-05-09","CENTER_NAME":"EARTH","SITE":"AFETR","OBJECT_TYPE":"PAYLOAD","NORAD_CAT_ID":"48433","REV_AT_EPOCH":"9945","MEAN_MOTION_DDOT":"0.0000000000000","RA_OF_ASC_NODE":"103.2614","EPOCH":"2023-02-21T19:47:03.316416","INCLINATION":"53.0523","COUNTRY_CODE":"US","MEAN_ELEMENT_THEORY":"SGP4","EPHEMERIS_TYPE":"0","OBJECT_ID":"2021-040F","ECCENTRICITY":"0.00018020","MEAN_ANOMALY":"270.4890","FILE":"3821329","SEMIMAJOR_AXIS":"6925.325","BSTAR":"0.00073300000000","OBJECT_NAME":"STARLINK-2699","CLASSIFICATION_TYPE":"U","PERIOD":"95.592","RCS_SIZE":"LARGE","TLE_LINE2":"2 48433  53.0523 103.2614 0001802  89.6305 270.4890 15.06407843 99456","ARG_OF_PERICENTER":"89.6305","MEAN_MOTION":"15.06407843","TLE_LINE1":"1 48433U 21040F   23052.82434394  .00010656  00000-0  73300-3 0  9992","MEAN_MOTION_DOT":"0.00010656","GP_ID":"226331518","TIME_SYSTEM":"UTC","DECAY_DATE":null,"APOAPSIS":"548.437","PERIAPSIS":"545.942","REF_FRAME":"TEME"},{"PERIOD":"95.592","RCS_SIZE":"LARGE","TLE_LINE2":"2 48434  53.0511 108.3511 0000723  82.3692 277.7379 15.06404027 99392","MEAN_MOTION":"15.06404027","ARG_OF_PERICENTER":"82.3692","TLE_LINE1":"1 48434U 21040G   23052.85527289  .00014025  00000-0  95845-3 0  9994","GP_ID":"226330266","MEAN_MOTION_DOT":"0.00014025","TIME_SYSTEM":"UTC","PERIAPSIS":"546.701","APOAPSIS":"547.702","REF_FRAME":"TEME","DECAY_DATE":null,"OBJECT_ID":"2021-040G","ECCENTRICITY":"0.00007230","FILE":"3821329","MEAN_ANOMALY":"277.7379","OBJECT_NAME":"STARLINK-2692","BSTAR":"0.00095845000000","SEMIMAJOR_AXIS":"6925.336","CLASSIFICATION_TYPE":"U","RA_OF_ASC_NODE":"108.3511","EPOCH":"2023-02-21T20:31:35.577696","INCLINATION":"53.0511","COUNTRY_CODE":"US","MEAN_ELEMENT_THEORY":"SGP4","EPHEMERIS_TYPE":"0","LAUNCH_DATE":"2021-05-09","ELEMENT_SET_NO":"999","CENTER_NAME":"EARTH","SITE":"AFETR","OBJECT_TYPE":"PAYLOAD","NORAD_CAT_ID":"48434","REV_AT_EPOCH":"9939","MEAN_MOTION_DDOT":"0.0000000000000"},{"TLE_LINE2":"2 48435  53.0512 119.3086 0001651  76.9513 283.1660 15.06454215100486","ARG_OF_PERICENTER":"76.9513","MEAN_MOTION":"15.06454215","PERIOD":"95.589","RCS_SIZE":"LARGE","TIME_SYSTEM":"UTC","DECAY_DATE":null,"APOAPSIS":"548.191","PERIAPSIS":"545.904","REF_FRAME":"TEME","TLE_LINE1":"1 48435U 21040H   23052.52989949  .00024935  00000-0  16845-2 0  9997","MEAN_MOTION_DOT":"0.00024935","GP_ID":"226293913","OBJECT_ID":"2021-040H","ECCENTRICITY":"0.00016510","CLASSIFICATION_TYPE":"U","MEAN_ANOMALY":"283.1660","FILE":"3820559","SEMIMAJOR_AXIS":"6925.182","OBJECT_NAME":"STARLINK-2633","BSTAR":"0.00168450000000","INCLINATION":"53.0512","RA_OF_ASC_NODE":"119.3086","EPOCH":"2023-02-21T12:43:03.315936","MEAN_ELEMENT_THEORY":"SGP4","EPHEMERIS_TYPE":"0","COUNTRY_CODE":"US","CENTER_NAME":"EARTH","SITE":"AFETR","ELEMENT_SET_NO":"999","LAUNCH_DATE":"2021-05-09","REV_AT_EPOCH":"10048","MEAN_MOTION_DDOT":"0.0000000000000","OBJECT_TYPE":"PAYLOAD","NORAD_CAT_ID":"48435"},{"NORAD_CAT_ID":"48436","OBJECT_TYPE":"PAYLOAD","MEAN_MOTION_DDOT":"0.0000000000000","REV_AT_EPOCH":"9902","LAUNCH_DATE":"2021-05-09","ELEMENT_SET_NO":"999","SITE":"AFETR","CENTER_NAME":"EARTH","COUNTRY_CODE":"US","EPHEMERIS_TYPE":"0","MEAN_ELEMENT_THEORY":"SGP4","EPOCH":"2023-02-21T17:14:22.467840","RA_OF_ASC_NODE":"133.4518","INCLINATION":"53.0534","BSTAR":"0.00035510000000","OBJECT_NAME":"STARLINK-2639","SEMIMAJOR_AXIS":"6925.223","MEAN_ANOMALY":"285.8015","FILE":"3821329","CLASSIFICATION_TYPE":"U","ECCENTRICITY":"0.00014320","OBJECT_ID":"2021-040J","GP_ID":"226331268","MEAN_MOTION_DOT":"0.00005017","TLE_LINE1":"1 48436U 21040J   23052.71831560  .00005017  00000-0  35510-3 0  9995","PERIAPSIS":"546.096","REF_FRAME":"TEME","APOAPSIS":"548.079","DECAY_DATE":null,"TIME_SYSTEM":"UTC","RCS_SIZE":"LARGE","PERIOD":"95.590","MEAN_MOTION":"15.06441082","ARG_OF_PERICENTER":"74.3131","TLE_LINE2":"2 48436  53.0534 133.4518 0001432  74.3131 285.8015 15.06441082 99021"},{"OBJECT_ID":"2021-040K","ECCENTRICITY":"0.00012740","CLASSIFICATION_TYPE":"U","MEAN_ANOMALY":"288.6101","FILE":"3821329","SEMIMAJOR_AXIS":"6925.144","BSTAR":"0.00239690000000","OBJECT_NAME":"STARLINK-2642","TLE_LINE2":"2 48437  53.0510 143.2259 0001274  71.5026 288.6101 15.06466794 98891","ARG_OF_PERICENTER":"71.5026","MEAN_MOTION":"15.06466794","PERIOD":"95.588","RCS_SIZE":"LARGE","TIME_SYSTEM":"UTC","DECAY_DATE":null,"APOAPSIS":"547.891","PERIAPSIS":"546.127","REF_FRAME":"TEME","TLE_LINE1":"1 48437U 21040K   23052.76901935  .00035666  00000-0  23969-2 0  9992","MEAN_MOTION_DOT":"0.00035666","GP_ID":"226331019","CENTER_NAME":"EARTH","SITE":"AFETR","ELEMENT_SET_NO":"999","LAUNCH_DATE":"2021-05-09","REV_AT_EPOCH":"9889","MEAN_MOTION_DDOT":"0.0000000000000","OBJECT_TYPE":"PAYLOAD","NORAD_CAT_ID":"48437","INCLINATION":"53.0510","RA_OF_ASC_NODE":"143.2259","EPOCH":"2023-02-21T18:27:23.271840","MEAN_ELEMENT_THEORY":"SGP4","EPHEMERIS_TYPE":"0","COUNTRY_CODE":"US"}];
